NORAD_CAT_ID,OBJECT_NAME,OBJECT_TYPE,EPOCH,MEAN_MOTION,ECCENTRICITY,INCLINATION,RA_OF_ASC_NODE,ARG_OF_PERICENTER,MEAN_ANOMALY,BSTAR,MEAN_MOTION_DOT,MEAN_MOTION_DDOT,TLE_LINE0,TLE_LINE1,TLE_LINE2,SEMIMAJOR_AXIS,PERIOD,APOGEE,PERIGEE,DECAYED
53407.0,STARLINK-4537,PAYLOAD,2022-08-15 18:00:00,15.85462616,0.0020575,53.2175,220.762,53.0293,9.8664,-0.0052207,-0.01152871,0.0,0 STARLINK-4537,1 53407U 22097V   22227.75001157 -.01152871  00000-0 -52207-2 0  9995,2 53407  53.2175 220.7620 0020575  53.0293   9.8664 15.85462616  1305,6693.159000000002,90.825,328.796,301.253,0.0
53407.0,STARLINK-4537,PAYLOAD,2022-08-16 06:00:02,15.84168929,0.0016277999999999,53.2175,218.2461,51.0305,346.2693,-0.0056677,-0.01163315,0.0,0 STARLINK-4537,1 53407U 22097V   22228.25002315 -.01163315  00000-0 -56677-2 0  9998,2 53407  53.2175 218.2461 0016278  51.0305 346.2693 15.84168929  1373,6696.803000000001,90.899,329.569,307.767,0.0
53407.0,STARLINK-4537,PAYLOAD,2022-08-16 14:00:01,15.83304034,0.0012196,53.2173,216.5701,49.1117,89.7123,-0.0059613,-0.01187136,0.0,0 STARLINK-4537,1 53407U 22097V   22228.58334491 -.01187136  00000-0 -59613-2 0  9997,2 53407  53.2173 216.5701 0012196  49.1117  89.7123 15.83304034  1301,6699.241,90.949,329.277,312.936,0.0
53407.0,STARLINK-4537,PAYLOAD,2022-08-16 22:00:00,15.82460433,0.0009580999999999,53.2173,214.8953,47.8669,191.4971,-0.0064596,-0.01226732,0.0,0 STARLINK-4537,1 53407U 22097V   22228.91667824 -.01226732  00000-0 -64596-2 0  9995,2 53407  53.2173 214.8953 0009581  47.8669 191.4971 15.82460433  1309,6701.621999999999,90.998,329.908,317.066,0.0
53407.0,STARLINK-4537,PAYLOAD,2022-08-17 14:00:01,15.80698471,0.0004602999999999,53.2173,211.5567,21.7326,55.6064,-0.0067521,-0.01180354,0.0,0 STARLINK-4537,1 53407U 22097V   22229.58334491 -.01180354  00000-0 -67521-2 0  9990,2 53407  53.2173 211.5567 0004603  21.7326  55.6064 15.80698471  1593,6706.601,91.099,331.55300000000005,325.379,0.0
53407.0,STARLINK-4537,PAYLOAD,2022-08-18 08:00:01,15.78768804,0.0003328,53.2183,207.8102,356.5995,28.4536,-0.0076119,-0.01212294,0.0,0 STARLINK-4537,1 53407U 22097V   22230.33334491 -.01212294  00000-0 -76119-2 0  9997,2 53407  53.2183 207.8102 0003328 356.5995  28.4536 15.78768804  1701,6712.065,91.21,336.164,331.696,0.0
53407.0,STARLINK-4537,PAYLOAD,2022-08-18 14:00:01,15.78096905,0.0003431,53.2175,206.5624,351.2096,15.2557,-0.0076428,-0.01184113,0.0,0 STARLINK-4537,1 53407U 22097V   22230.58334491 -.01184113  00000-0 -76428-2 0  9995,2 53407  53.2175 206.5624 0003431 351.2096  15.2557 15.78096905  1305,6713.97,91.249,338.139,333.531,0.0
53407.0,STARLINK-4537,PAYLOAD,2022-08-18 22:00:00,15.772356099999998,0.0003645,53.2175,204.9005,3.5367,97.2154,-0.0080048999999999,-0.01192056,0.0,0 STARLINK-4537,1 53407U 22097V   22230.91667824 -.01192056  00000-0 -80049-2 0  9990,2 53407  53.2175 204.9005 0003645   3.5367  97.2154 15.77235610  1305,6716.4140000000025,91.299,340.727,335.831,0.0
53407.0,STARLINK-4537,PAYLOAD,2022-08-19 06:00:00,15.76370445,0.0003694,53.2173,203.2443,5.5482,188.4482,-0.0083545,-0.01196317,0.0,0 STARLINK-4537,1 53407U 22097V   22231.25001157 -.01196317  00000-0 -83545-2 0  9997,2 53407  53.2173 203.2443 0003694   5.5482 188.4482 15.76370445  1857,6718.871,91.349,343.218,338.254,0.0
53407.0,STARLINK-4537,PAYLOAD,2022-08-19 14:00:01,15.75494918,7.329999999999999e-05,53.2174,201.5871,358.4249,287.7791,-0.0085917999999999,-0.01183167,0.0,0 STARLINK-4537,1 53407U 22097V   22231.58334491 -.01183167  00000-0 -85918-2 0  9998,2 53407  53.2174 201.5871 0000733 358.4249 287.7791 15.75494918  1303,6721.36,91.4,343.718,342.733,0.0
53407.0,STARLINK-4537,PAYLOAD,2022-08-19 22:00:00,15.74629439,0.0001142,53.2177,199.9319,43.3412,334.0217,-0.008956,-0.01186929,0.0,0 STARLINK-4537,1 53407U 22097V   22231.91667824 -.01186929  00000-0 -89560-2 0  9990,2 53407  53.2177 199.9319 0001142  43.3412 334.0217 15.74629439  1306,6723.823,91.45,346.456,344.92,0.0
53407.0,STARLINK-4537,PAYLOAD,2022-08-20 08:00:01,15.73457175,0.0001185,53.2176,197.8697,55.8106,164.0472,-0.0026298,-0.00358338,0.0,0 STARLINK-4537,1 53407U 22097V   22232.33334491 -.00358338  00000-0 -26298-2 0  9991,2 53407  53.2176 197.8697 0001185  55.8106 164.0472 15.73457175  2025,6727.1619999999975,91.518,349.824,348.23,0.0
53407.0,STARLINK-4537,PAYLOAD,2022-08-20 14:00:01,15.73205931,0.0001094,53.2174,196.6308,70.0677,126.6334,-2.8257e-05,-4.584e-05,0.0,0 STARLINK-4537,1 53407U 22097V   22232.58334491 -.00004584  00000-0 -28257-4 0  9998,2 53407  53.2174 196.6308 0001094  70.0677 126.6334 15.73205931  1302,6727.878000000002,91.533,350.47900000000016,349.00699999999995,0.0
53407.0,STARLINK-4537,PAYLOAD,2022-08-20 22:00:00,15.73203964,0.0001141,53.2175,194.9804,74.8875,210.7484,1.2844e-05,1.183e-05,0.0,0 STARLINK-4537,1 53407U 22097V   22232.91667824  .00001183  00000-0  12844-4 0  9999,2 53407  53.2175 194.9804 0001141  74.8875 210.7484 15.73203964  1305,6727.884,91.533,350.517,348.981,0.0
53407.0,STARLINK-4537,PAYLOAD,2022-08-21 06:00:00,15.73238599,0.0001174,53.22,193.3365,63.3451,311.0891,0.00018125,0.00024934,0.0,0 STARLINK-4537,1 53407U 22097V   22233.25001157  .00024934  00000-0  18125-3 0  9994,2 53407  53.2200 193.3365 0001174  63.3451 311.0891 15.73238599  2162,6727.785,91.531,350.44,348.86,0.0
53407.0,STARLINK-4537,PAYLOAD,2022-08-21 14:00:01,15.73278367,0.0001185,53.2201,191.6856,69.6401,33.8049,-0.00035448,-0.00050238,0.0,0 STARLINK-4537,1 53407U 22097V   22233.58334491 -.00050238  00000-0 -35448-3 0  9995,2 53407  53.2201 191.6856 0001185  69.6401  33.8049 15.73278367  1301,6727.672,91.529,350.334,348.74,0.0
53407.0,STARLINK-4537,PAYLOAD,2022-08-21 22:00:00,15.73271994,0.0001447,53.2204,190.0355,78.9436,113.4759,-0.00049358,-0.00069534,0.0,0 STARLINK-4537,1 53407U 22097V   22233.91667824 -.00069534  00000-0 -49358-3 0  9995,2 53407  53.2204 190.0355 0001447  78.9436 113.4759 15.73271994  1305,6727.69,91.529,350.528,348.581,0.0
53407.0,STARLINK-4537,PAYLOAD,2022-08-22 12:00:00,15.7320612,0.0001389,53.2196,187.15,71.2669,186.8422,-0.00025614,-0.00036422,0.0,0 STARLINK-4537,1 53407U 22097V   22234.50001157 -.00036422  00000-0 -25614-3 0  9991,2 53407  53.2196 187.1500 0001389  71.2669 186.8422 15.73206120  1303,6727.878000000002,91.533,350.677,348.80800000000005,0.0
53407.0,STARLINK-4537,PAYLOAD,2022-08-22 22:00:00,15.73211223,0.0001276,53.2201,185.0876,81.7806,17.4683,0.00012079,0.00016373,0.0,0 STARLINK-4537,1 53407U 22097V   22234.91667824  .00016373  00000-0  12079-3 0  9997,2 53407  53.2201 185.0876 0001276  81.7806  17.4683 15.73211223  2430,6727.863,91.533,350.587,348.87,0.0
53407.0,STARLINK-4537,PAYLOAD,2022-08-23 06:00:00,15.73186252,0.0001184,53.2202,183.4402,66.2679,121.9323,-4.4174e-05,-6.809999999999999e-05,0.0,0 STARLINK-4537,1 53407U 22097V   22235.25001157 -.00006810  00000-0 -44174-4 0  9995,2 53407  53.2202 183.4402 0001184  66.2679 121.9323 15.73186252  2482,6727.934,91.534,350.596,349.00300000000016,0.0
53407.0,STARLINK-4537,PAYLOAD,2022-08-23 14:00:01,15.73184318,0.0001027,53.2205,181.7892,72.7567,204.3472,6.8939e-05,9.059e-05,0.0,0 STARLINK-4537,1 53407U 22097V   22235.58334491  .00009059  00000-0  68939-4 0  9992,2 53407  53.2205 181.7892 0001027  72.7567 204.3472 15.73184318  1305,6727.94,91.534,350.496,349.11400000000015,0.0
53407.0,STARLINK-4537,PAYLOAD,2022-08-23 20:00:01,15.73203403,0.000151,53.2175,180.5465,78.9855,174.8257,1.8357e-05,1.957e-05,0.0,0 STARLINK-4537,1 53407U 22097V   22235.83334491  .00001957  00000-0  18357-4 0  9998,2 53407  53.2175 180.5465 0001510  78.9855 174.8257 15.73203403  2578,6727.885,91.533,350.766,348.735,0.0
53407.0,STARLINK-4537,PAYLOAD,2022-08-23 22:00:01,15.73205003,0.0001537,53.2177,180.1346,77.6527,288.457,-5.9315e-06,-1.453e-05,0.0,0 STARLINK-4537,1 53407U 22097V   22235.91668981 -.00001453  00000-0 -59315-5 0  9994,2 53407  53.2177 180.1346 0001537  77.6527 288.4570 15.73205003  1303,6727.880999999999,91.533,350.78,348.712,0.0
53407.0,STARLINK-4537,PAYLOAD,2022-08-24 06:00:00,15.73220072,0.0001262999999999,53.2208,178.49200000000005,66.4831,28.5907,5.4624e-05,7.059e-05,0.0,0 STARLINK-4537,1 53407U 22097V   22236.25001157  .00007059  00000-0  54624-4 0  9991,2 53407  53.2208 178.4920 0001263  66.4831  28.5907 15.73220072  2644,6727.8380000000025,91.532,350.55300000000005,348.853,0.0
53407.0,STARLINK-4537,PAYLOAD,2022-08-24 14:00:01,15.73192171,0.0001237,53.2204,176.8403,75.8764,108.1655,2.4827e-05,2.865e-05,0.0,0 STARLINK-4537,1 53407U 22097V   22236.58334491  .00002865  00000-0  24827-4 0  9999,2 53407  53.2204 176.8403 0001237  75.8764 108.1655 15.73192171  1303,6727.917,91.534,350.615,348.95,0.0
53407.0,STARLINK-4537,PAYLOAD,2022-08-24 22:00:00,15.73337531,0.0001267,53.2188,175.188,85.3521,187.5839,-0.0026909,-0.00364509,0.0,0 STARLINK-4537,1 53407U 22097V   22236.91667824 -.00364509  00000-0 -26909-2 0  9994,2 53407  53.2188 175.1880 0001267  85.3521 187.5839 15.73337531  1301,6727.503000000002,91.525,350.22,348.516,0.0
53407.0,STARLINK-4537,PAYLOAD,2022-08-25 06:00:02,15.73318676,0.0001296,53.219,173.5426,72.9686,288.9677,-0.0020728,-0.00283378,0.0,0 STARLINK-4537,1 53407U 22097V   22237.25002315 -.00283378  00000-0 -20728-2 0  9997,2 53407  53.2190 173.5426 0001296  72.9686 288.9677 15.73318676  2797,6727.557,91.526,350.2940000000001,348.55,0.0
53407.0,STARLINK-4537,PAYLOAD,2022-08-25 14:00:01,15.73224284,0.0001065,53.2195,171.893,78.1553,12.6977,-0.00038616,-0.00054519,0.0,0 STARLINK-4537,1 53407U 22097V   22237.58334491 -.00054519  00000-0 -38616-3 0  9995,2 53407  53.2195 171.8930 0001065  78.1553  12.6977 15.73224284  2851,6727.826,91.532,350.407,348.974,0.0
53407.0,STARLINK-4537,PAYLOAD,2022-08-25 22:00:00,15.73210101,0.0001094,53.2199,170.2437,79.3282,100.4452,5.0205e-05,6.435e-05,0.0,0 STARLINK-4537,1 53407U 22097V   22237.91667824  .00006435  00000-0  50205-4 0  9992,2 53407  53.2199 170.2437 0001094  79.3282 100.4452 15.73210101  1300,6727.866,91.533,350.467,348.995,0.0
